NOAA 15                 
1 25338U 98030A   25196.15072901  .00000165  00000+0  85575-4 0  9994
2 25338  98.5338 220.4235 0009052 253.0826 106.9362 14.26996601413479
DMSP 5D-3 F16 (USA 172) 
1 28054U 03048A   25196.23597318 -.00000006  00000+0  20806-4 0  9991
2 28054  99.0122 212.3920 0007725  29.1016  45.1863 14.14360135121833
NOAA 18                 
1 28654U 05018A   25196.22448078  .00000065  00000+0  57560-4 0  9994
2 28654  98.8419 275.2996 0014712  32.6247 327.5831 14.13618890 38781
METEOSAT-9 (MSG-2)      
1 28912U 05049B   25195.21139997  .00000130  00000+0  00000+0 0  9995
2 28912   8.5866  57.4027 0001271 359.9073 356.7957  1.00270583  3617
EWS-G1 (GOES 13)        
1 29155U 06018A   25195.64107946  .00000056  00000+0  00000+0 0  9995
2 29155   3.6510  80.5844 0059584 267.2466 228.8014  0.98784911 39916
DMSP 5D-3 F17 (USA 191) 
1 29522U 06050A   25196.21343530  .00000013  00000+0  29246-4 0  9995
2 29522  98.7387 204.6934 0009087 302.2530  57.7762 14.14840094964762
FENGYUN 3A              
1 32958U 08026A   25196.12303058  .00000063  00000+0  50141-4 0  9991
2 32958  98.6486 139.0218 0009240  26.1950 333.9692 14.19454242887691
NOAA 19                 
1 33591U 09005A   25196.16590089  .00000140  00000+0  98886-4 0  9993
2 33591  98.9957 261.0676 0012701 262.3869  97.5861 14.13389211847137
GOES 14                 
1 35491U 09033A   25195.60918644 -.00000062  00000+0  00000+0 0  9994
2 35491   0.8041  87.6637 0002931  72.3114 243.9824  1.00274016  3205
DMSP 5D-3 F18 (USA 210) 
1 35951U 09057A   25196.22224475  .00000203  00000+0  12848-3 0  9995
2 35951  98.8612 173.5414 0012024 125.0193 235.2110 14.14652189811920
EWS-G2 (GOES 15)        
1 36411U 10008A   25195.95808541  .00000046  00000+0  00000+0 0  9994
2 36411   0.4058  85.3386 0003412 110.4088 143.5141  1.00272872 56255
COMS 1                  
1 36744U 10032A   25195.92106295 -.00000338  00000+0  00000+0 0  9999
2 36744   3.9512  79.5895 0000962  37.0282 276.1034  1.00271055 55271
FENGYUN 3B              
1 37214U 10059A   25196.24949171  .00000043  00000+0  45703-4 0  9991
2 37214  99.0109 234.9729 0023057  62.6739  10.3291 14.14738058759821
SUOMI NPP               
1 37849U 11061A   25196.13655366  .00000053  00000+0  45906-4 0  9993
2 37849  98.7579 135.0135 0001175 159.3633 200.7590 14.19545699710611
METEOSAT-10 (MSG-3)     
1 38552U 12035B   25195.20247325  .00000007  00000+0  00000+0 0  9996
2 38552   3.8680  62.0463 0000925  77.0082 226.9333  1.00280300 47464
METOP-B                 
1 38771U 12049A   25196.15515663  .00000073  00000+0  52733-4 0  9990
2 38771  98.5751 249.3670 0000699 139.1625 220.9605 14.21464142665375
INSAT-3D                
1 39216U 13038B   25196.18864066 -.00000332  00000+0  00000+0 0  9995
2 39216   1.0518  87.1874 0000790  61.3813 342.1608  1.00268108 43929
FENGYUN 3C              
1 39260U 13052A   25196.19996705  .00000057  00000+0  50147-4 0  9992
2 39260  98.4560 181.3696 0013462 274.3790  85.5847 14.15635266610953
METEOR-M 2              
1 40069U 14037A   25196.24173855  .00000071  00000+0  51914-4 0  9993
2 40069  98.4696 179.7418 0004696 303.4925  56.5804 14.21308502571457
HIMAWARI-8              
1 40267U 14060A   25195.76493235 -.00000268  00000+0  00000+0 0  9996
2 40267   0.0166 228.6477 0000786 260.5454 219.7044  1.00271138 39368
FENGYUN 2G              
1 40367U 14090A   25195.74613623 -.00000293  00000+0  00000+0 0  9991
2 40367   4.7815  76.9458 0004184 140.9088  82.8611  1.00261188 38614
METEOSAT-11 (MSG-4)     
1 40732U 15034A   25195.93864287  .00000068  00000+0  00000+0 0  9990
2 40732   2.3565  72.3793 0000780 112.7886  94.9930  1.00271279  3835
ELEKTRO-L 2             
1 41105U 15074A   25195.41359443 -.00000111  00000+0  00000+0 0  9995
2 41105   5.8382  74.7060 0001170 175.0094 177.2376  1.00271017 35110
INSAT-3DR               
1 41752U 16054A   25196.07366985 -.00000069  00000+0  00000+0 0  9996
2 41752   0.0770  92.2097 0010350 172.4698 129.0098  1.00270354 32422
HIMAWARI-9              
1 41836U 16064A   25195.76491728 -.00000267  00000+0  00000+0 0  9999
2 41836   0.0474 236.6089 0001516 257.4020 214.9894  1.00270902 31828
GOES 16                 
1 41866U 16071A   25196.24272142 -.00000083  00000+0  00000+0 0  9997
2 41866   0.0428 222.6541 0001268 308.0899 105.2568  1.00270960 31711
FENGYUN 4A              
1 41882U 16077A   25196.10878163 -.00000350  00000+0  00000+0 0  9998
2 41882   1.4604  84.0210 0006577 169.1047 202.9257  1.00274468 31607
CYGFM05                 
1 41884U 16078A   25195.70091006  .00009566  00000+0  22314-3 0  9992
2 41884  34.9615 308.4024 0009620 214.4085 145.6012 15.41368125476403
CYGFM04                 
1 41885U 16078B   25195.68222538  .00010405  00000+0  22689-3 0  9995
2 41885  34.9363 286.9076 0008921 236.2308 123.7562 15.43362700476541
CYGFM02                 
1 41886U 16078C   25195.92665711  .00010188  00000+0  21557-3 0  9998
2 41886  34.9447 285.3253 0010560 232.6159 127.3600 15.44236140476699
CYGFM01                 
1 41887U 16078D   25196.00258003  .00009290  00000+0  21385-3 0  9992
2 41887  34.9450 309.7652 0009021 204.7300 155.2987 15.41771691476506
CYGFM08                 
1 41888U 16078E   25195.96664387  .00009683  00000+0  21564-3 0  9998
2 41888  34.9474 294.5045 0011070 227.7769 132.2012 15.42727870476629
CYGFM07                 
1 41890U 16078G   25195.63833439  .00010556  00000+0  23058-3 0  9992
2 41890  34.9488 286.4684 0009368 241.7888 118.1887 15.43305477476552
CYGFM03                 
1 41891U 16078H   25195.64927556  .00010370  00000+0  22854-3 0  9995
2 41891  34.9440 288.0868 0008378 227.3284 132.6731 15.43056510476687
FENGYUN 3D              
1 43010U 17072A   25196.19473857  .00000053  00000+0  46691-4 0  9999
2 43010  98.9641 160.4504 0000764 341.7764  18.3383 14.19637859397172
NOAA 20 (JPSS-1)        
1 43013U 17073A   25196.15251448  .00000054  00000+0  46593-4 0  9991
2 43013  98.7410 134.2722 0001443 125.3782 234.7529 14.19545488396653
GOES 17                 
1 43226U 18022A   25195.61291313 -.00000175  00000+0  00000+0 0  9990
2 43226   0.0704 105.1506 0001133 139.3946 179.3202  1.00271388 27059
FENGYUN 2H              
1 43491U 18050A   25196.07453652 -.00000121  00000+0  00000+0 0  9993
2 43491   2.1594  83.1422 0001954 115.2195 200.7707  1.00274598 26138
METOP-C                 
1 43689U 18087A   25196.19059856  .00000075  00000+0  54150-4 0  9990
2 43689  98.7138 256.0729 0002283  81.9499 278.1937 14.21495884346954
GEO-KOMPSAT-2A          
1 43823U 18100A   25195.92009509 -.00000336  00000+0  00000+0 0  9997
2 43823   0.0356 136.9114 0002161 329.6954 285.8970  1.00270515 24285
METEOR-M2 2             
1 44387U 19038A   25196.18667497  .00000058  00000+0  45006-4 0  9999
2 44387  98.8763 174.2217 0000120 301.5227  58.5940 14.24216155313320
ARKTIKA-M 1             
1 47719U 21016A   25195.54606893 -.00000006  00000+0  00000+0 0  9996
2 47719  63.1498 104.1560 7124748 268.7047  16.4117  2.00619135 32029
FENGYUN 3E              
1 49008U 21062A   25196.15287179 -.00000019  00000+0  11642-4 0  9993
2 49008  98.7423 198.4493 0001681  23.5681 336.5572 14.19869693208754
GOES 18                 
1 51850U 22021A   25196.24169671  .00000104  00000+0  00000+0 0  9998
2 51850   0.0149 155.1440 0000416  34.9026  53.2938  1.00270946 12428
NOAA 21 (JPSS-2)        
1 54234U 22150A   25196.18848776  .00000033  00000+0  36501-4 0  9994
2 54234  98.7273 134.5483 0002736  77.2637 282.8845 14.19544028138731
METEOSAT-12 (MTG-I1)    
1 54743U 22170C   25195.63059319  .00000000  00000+0  00000+0 0  9991
2 54743   0.6537  30.7992 0001641  87.3796  41.1912  1.00270983  9599
TIANMU-1 03             
1 55973U 23039A   25196.21057195  .00008409  00000+0  24326-3 0  9999
2 55973  97.5038 355.3956 0002987 210.2870 149.8202 15.35867489128929
TIANMU-1 04             
1 55974U 23039B   25196.21762899  .00008413  00000+0  24148-3 0  9991
2 55974  97.4967 354.6707 0003883 210.0348 150.0673 15.36110746128924
TIANMU-1 05             
1 55975U 23039C   25196.18087812  .00008372  00000+0  24242-3 0  9992
2 55975  97.5014 355.1039 0002320 238.5378 121.5639 15.35841115128909
TIANMU-1 06             
1 55976U 23039D   25196.22635965  .00008242  00000+0  23607-3 0  9996
2 55976  97.5027 355.5009 0002805 232.8741 127.2246 15.36189155128923
METEOR-M2 3             
1 57166U 23091A   25196.18630523  .00000000  00000+0  18917-4 0  9990
2 57166  98.6593 252.1522 0005073  75.4209 284.7532 14.24003790106556
TIANMU-1 07             
1 57399U 23101A   25196.22977086  .00004529  00000+0  18190-3 0  9995
2 57399  97.3086 249.4895 0002729 231.9726 128.1267 15.25444644110197
TIANMU-1 08             
1 57400U 23101B   25196.19594717  .00004340  00000+0  17442-3 0  9990
2 57400  97.3074 249.2789 0004674 245.7985 114.2765 15.25444793110181
TIANMU-1 09             
1 57401U 23101C   25196.18091284  .00004542  00000+0  18271-3 0  9996
2 57401  97.3030 248.8691 0003827 243.2726 116.8121 15.25390017110189
TIANMU-1 10             
1 57402U 23101D   25196.14830034  .00004691  44403-8  18621-3 0  9995
2 57402  97.3110 249.5287 0005694 247.0027 113.0610 15.25373005110177
FENGYUN 3F              
1 57490U 23111A   25196.21151712  .00000034  00000+0  36341-4 0  9993
2 57490  98.7258 266.7840 0001780  71.7399 288.3971 14.20051890101045
ARKTIKA-M 2             
1 58584U 23198A   25193.29373534  .00000220  00000+0  00000+0 0  9991
2 58584  63.2315 191.6099 6868894 268.7316  18.5391  2.00600757 11500
TIANMU-1 11             
1 58645U 23205A   25196.19394926  .00003992  00000+0  17569-3 0  9999
2 58645  97.3709 218.5815 0011646 109.9900 250.2592 15.22369463 86179
TIANMU-1 12             
1 58646U 23205B   25196.14603943  .00004233  00000+0  18637-3 0  9993
2 58646  97.3696 218.3867 0009866  99.9728 260.2623 15.22336265 86155
TIANMU-1 13             
1 58647U 23205C   25196.24509197  .00003902  00000+0  17214-3 0  9993
2 58647  97.3726 218.6284 0009883  82.5885 277.6475 15.22312490 86169
TIANMU-1 14             
1 58648U 23205D   25196.22791256  .00003935  00000+0  17345-3 0  9992
2 58648  97.3655 218.1002 0010963  86.5795 273.6696 15.22331316 86168
TIANMU-1 19             
1 58660U 23208A   25196.25291973  .00005486  00000+0  22572-3 0  9994
2 58660  97.4306 308.1193 0007114  75.1586 285.0439 15.24534350 85877
TIANMU-1 20             
1 58661U 23208B   25196.22644380  .00005281  00000+0  20963-3 0  9991
2 58661  97.4243 308.3928 0009654  82.0095 278.2238 15.25737888 85928
TIANMU-1 21             
1 58662U 23208C   25196.24653193  .00006224  00000+0  23227-3 0  9990
2 58662  97.4287 309.7231 0009147  79.9846 280.2425 15.27723454 85999
TIANMU-1 22             
1 58663U 23208D   25196.24021108  .00005034  00000+0  20766-3 0  9999
2 58663  97.4301 308.2057 0005832  94.4785 265.7119 15.24495280 85884
TIANMU-1 15             
1 58700U 24004A   25195.63634958  .00003885  00000+0  17203-3 0  9995
2 58700  97.4661  17.9125 0008341 100.1697 260.0480 15.22220036 84342
TIANMU-1 16             
1 58701U 24004B   25196.21155607  .00004071  00000+0  17983-3 0  9993
2 58701  97.4598  18.0014 0008681 102.8146 257.4060 15.22266155 84432
TIANMU-1 17             
1 58702U 24004C   25196.19427396  .00004298  00000+0  18883-3 0  9999
2 58702  97.4636  18.3280 0007336 103.4093 256.7961 15.22427116 84425
TIANMU-1 18             
1 58703U 24004D   25196.17869103  .00004202  00000+0  18524-3 0  9991
2 58703  97.4653  18.4699 0007182  94.1020 266.1037 15.22325817 84429
INSAT-3DS               
1 58990U 24033A   25195.84211240 -.00000149  00000+0  00000+0 0  9990
2 58990   0.0949 264.1756 0001333 222.9662 191.0645  1.00272387 43682
METEOR-M2 4             
1 59051U 24039A   25196.16845750  .00000007  00000+0  22617-4 0  9995
2 59051  98.6511 155.6484 0008199  68.7887 291.4166 14.22371282 71353
GOES 19                 
1 60133U 24119A   25195.54436270 -.00000240  00000+0  00000+0 0  9998
2 60133   0.0149  92.7372 0000410 125.2913 195.4022  1.00269275  3926